{
    "type": "FeatureCollection",
    "features": [
      {
        "type": "Feature",
        "properties": {},
        "geometry": {
          "coordinates": [
            [
              [
                172.4984602853495,
                -34.33720535743944
              ],
              [
                172.75206353696512,
                -35.150920357043645
              ],
              [
                174.51887563475634,
                -37.211228884107484
              ],
              [
                174.54256514548678,
                -38.56301389985049
              ],
              [
                173.70216230023811,
                -39.140942137713374
              ],
              [
                173.56264454266994,
                -39.520743469699575
              ],
              [
                175.12945602590253,
                -40.19117585172974
              ],
              [
                174.65853415884817,
                -40.95558455401096
              ],
              [
                174.53768634876155,
                -41.274958886802814
              ],
              [
                175.1316658222504,
                -41.87918364858732
              ],
              [
                175.6774481440317,
                -41.65931364091242
              ],
              [
                177.3644731018474,
                -39.73707611490457
              ],
              [
                177.35272041816881,
                -39.393456183793155
              ],
              [
                178.2142089273874,
                -39.37371355693669
              ],
              [
                178.41957725385572,
                -38.79372549725514
              ],
              [
                178.7104998963772,
                -37.58136188423595
              ],
              [
                178.12898975981471,
                -37.24142867295469
              ],
              [
                177.25681511076533,
                -37.827855221348415
              ],
              [
                176.18538369518217,
                -37.44927265855373
              ],
              [
                176.05138627805871,
                -36.63460493326887
              ],
              [
                175.70849605806222,
                -36.08437543702748
              ],
              [
                175.40650165106234,
                -35.92324053573044
              ],
              [
                174.8474857239567,
                -36.245211805907594
              ],
              [
                174.59690985370963,
                -35.94407687288971
              ],
              [
                174.63546036310908,
                -35.819124432058636
              ],
              [
                174.68043745898353,
                -35.416910079867996
              ],
              [
                174.50052693546934,
                -35.12313850029385
              ],
              [
                173.90712514472563,
                -34.79320196451031
              ],
              [
                173.30318787923107,
                -34.68233257052119
              ],
              [
                173.1425673409355,
                -34.226720750234996
              ],
              [
                172.4984602853495,
                -34.33720535743944
              ]
            ]
          ],
          "type": "Polygon"
        }
      }
    ]
  }