{
    "type": "FeatureCollection",
    "features": [
      {
        "type": "Feature",
        "properties": {},
        "geometry": {
          "coordinates": [
            [
              [
                169.29289029710435,
                -46.71696008213959
              ],
              [
                170.2299084275379,
                -46.46147042343081
              ],
              [
                171.02977142512242,
                -45.79750475785268
              ],
              [
                171.20128360085926,
                -45.3826267373649
              ],
              [
                171.27159311100758,
                -44.81810212348979
              ],
              [
                171.52646289207524,
                -44.32977914011497
              ],
              [
                172.37017443295582,
                -43.98298680874272
              ],
              [
                172.9941677104859,
                -44.07776839662616
              ],
              [
                173.36329922111145,
                -43.799312375755314
              ],
              [
                172.99417495931112,
                -43.411113016531694
              ],
              [
                173.36328484287424,
                -43.020394775858676
              ],
              [
                174.43551731491175,
                -41.72843758781672
              ],
              [
                174.19822314661275,
                -41.57082741815111
              ],
              [
                174.5409159719519,
                -41.20158025950616
              ],
              [
                174.40036262331097,
                -40.770344238747924
              ],
              [
                173.95214030541166,
                -40.55033488736194
              ],
              [
                173.25783514631138,
                -40.89668698448038
              ],
              [
                173.24025780051215,
                -40.450090847344896
              ],
              [
                172.8623448658122,
                -40.32960033285207
              ],
              [
                171.97468890291083,
                -40.663763659950206
              ],
              [
                171.78133809911225,
                -41.340288347456685
              ],
              [
                171.30839655248081,
                -41.60830176652979
              ],
              [
                170.67531683821932,
                -42.83887119748916
              ],
              [
                168.6266616498371,
                -43.75392765222427
              ],
              [
                167.83392018094196,
                -44.18348597087795
              ],
              [
                166.13758307110493,
                -45.442852476058114
              ],
              [
                166.19031817191075,
                -46.30565405959321
              ],
              [
                167.49111898769945,
                -46.34207159014066
              ],
              [
                167.71963747524563,
                -46.48144866410414
              ],
              [
                167.19228508721795,
                -47.2923565121043
              ],
              [
                167.6756901779371,
                -47.41739631878465
              ],
              [
                168.7567597444541,
                -46.73504532362301
              ],
              [
                169.29289029710435,
                -46.71696008213959
              ]
            ]
          ],
          "type": "Polygon"
        }
      }
    ]
  }